[{"OBJECT_NAME":"SHIYAN-27 E","OBJECT_ID":"2025-078E","EPOCH":"2026-03-09T23:22:34.446720","MEAN_MOTION":13.57242291,"ECCENTRICITY":7.842e-5,"INCLINATION":99.6934,"RA_OF_ASC_NODE":77.609,"ARG_OF_PERICENTER":97.9766,"MEAN_ANOMALY":262.1462,"EPHEMERIS_TYPE":0,"CLASSIFICATION_TYPE":"U","NORAD_CAT_ID":63603,"ELEMENT_SET_NO":999,"REV_AT_EPOCH":4407,"BSTAR":0.000129575,"MEAN_MOTION_DOT":4.8e-7,"MEAN_MOTION_DDOT":0},{"OBJECT_NAME":"FENGYUN 1C DEB","OBJECT_ID":"1999-025EWU","EPOCH":"2026-03-08T15:13:15.195360","MEAN_MOTION":13.83934271,"ECCENTRICITY":0.01431985,"INCLINATION":98.9783,"RA_OF_ASC_NODE":218.3423,"ARG_OF_PERICENTER":159.8753,"MEAN_ANOMALY":200.8128,"EPHEMERIS_TYPE":0,"CLASSIFICATION_TYPE":"U","NORAD_CAT_ID":40688,"ELEMENT_SET_NO":999,"REV_AT_EPOCH":31105,"BSTAR":0.00060836233,"MEAN_MOTION_DOT":6.9e-6,"MEAN_MOTION_DDOT":0}]
